start=new Date('2022-07-17T00:00:00.000Z').valueOf();
sats=[{"DECAY_DATE":null,"TLE_LINE1":"1 48879U 21059A   22197.91667824 -.00020742  00000-0 -15467-2 0  9999","NORAD_CAT_ID":"48879","ELEMENT_SET_NO":"999","MEAN_MOTION_DDOT":"0.0000000000000","FILE":"3515618","TLE_LINE2":"2 48879  97.5137 327.6167 0002050  91.4359  38.9499 15.02904972  1305","MEAN_ELEMENT_THEORY":"SGP4","TIME_SYSTEM":"UTC","LAUNCH_DATE":"2021-06-30","COUNTRY_CODE":"US","RA_OF_ASC_NODE":"327.6167","ECCENTRICITY":"0.00020500","ARG_OF_PERICENTER":"91.4359","OBJECT_TYPE":"PAYLOAD","BSTAR":"-0.00154670000000","EPHEMERIS_TYPE":"0","APOAPSIS":"559.368","REF_FRAME":"TEME","SITE":"AFETR","INCLINATION":"97.5137","CENTER_NAME":"EARTH","EPOCH":"2022-07-16T22:00:00.999936","SEMIMAJOR_AXIS":"6936.081","GP_ID":"208272203","MEAN_MOTION_DOT":"-0.00020742","MEAN_ANOMALY":"38.9499","RCS_SIZE":"LARGE","REV_AT_EPOCH":"130","OBJECT_NAME":"STARLINK-3003","PERIAPSIS":"556.524","PERIOD":"95.814","OBJECT_ID":"2021-059A","CLASSIFICATION_TYPE":"U","MEAN_MOTION":"15.02904972"},{"OBJECT_ID":"2021-059B","PERIOD":"95.814","MEAN_MOTION":"15.02915897","CLASSIFICATION_TYPE":"U","OBJECT_NAME":"STARLINK-3004","PERIAPSIS":"556.593","RCS_SIZE":"LARGE","REV_AT_EPOCH":"130","MEAN_MOTION_DOT":"-0.00020890","MEAN_ANOMALY":"43.0775","SEMIMAJOR_AXIS":"6936.047","EPOCH":"2022-07-16T22:00:00.999936","GP_ID":"208272455","SITE":"AFETR","CENTER_NAME":"EARTH","INCLINATION":"97.5155","REF_FRAME":"TEME","APOAPSIS":"559.232","BSTAR":"-0.00155730000000","EPHEMERIS_TYPE":"0","OBJECT_TYPE":"PAYLOAD","ARG_OF_PERICENTER":"96.5633","ECCENTRICITY":"0.00019020","RA_OF_ASC_NODE":"327.6139","COUNTRY_CODE":"US","LAUNCH_DATE":"2021-06-30","TIME_SYSTEM":"UTC","MEAN_ELEMENT_THEORY":"SGP4","TLE_LINE2":"2 48880  97.5155 327.6139 0001902  96.5633  43.0775 15.02915897  1304","FILE":"3515618","MEAN_MOTION_DDOT":"0.0000000000000","ELEMENT_SET_NO":"999","NORAD_CAT_ID":"48880","TLE_LINE1":"1 48880U 21059B   22197.91667824 -.00020890  00000-0 -15573-2 0  9993","DECAY_DATE":null},{"OBJECT_NAME":"STARLINK-3005","PERIAPSIS":"556.468","PERIOD":"95.813","OBJECT_ID":"2021-059C","MEAN_MOTION":"15.02931190","CLASSIFICATION_TYPE":"U","SEMIMAJOR_AXIS":"6936.000","EPOCH":"2022-07-16T22:00:00.999936","GP_ID":"208271443","REV_AT_EPOCH":"130","RCS_SIZE":"LARGE","MEAN_MOTION_DOT":"-0.00061225","MEAN_ANOMALY":"90.1448","REF_FRAME":"TEME","SITE":"AFETR","CENTER_NAME":"EARTH","INCLINATION":"97.5109","OBJECT_TYPE":"PAYLOAD","APOAPSIS":"559.263","EPHEMERIS_TYPE":"0","BSTAR":"-0.00459680000000","COUNTRY_CODE":"US","ARG_OF_PERICENTER":"72.5545","ECCENTRICITY":"0.00020150","RA_OF_ASC_NODE":"327.6648","MEAN_ELEMENT_THEORY":"SGP4","TLE_LINE2":"2 48881  97.5109 327.6648 0002015  72.5545  90.1448 15.02931190  1305","LAUNCH_DATE":"2021-06-30","TIME_SYSTEM":"UTC","ELEMENT_SET_NO":"999","FILE":"3515618","MEAN_MOTION_DDOT":"0.0000000000000","TLE_LINE1":"1 48881U 21059C   22197.91667824 -.00061225  00000-0 -45968-2 0  9992","DECAY_DATE":null,"NORAD_CAT_ID":"48881"},{"DECAY_DATE":null,"TLE_LINE1":"1 49131U 21082B   22197.89904389  .00000817  00000-0  76285-4 0  9990","NORAD_CAT_ID":"49131","ELEMENT_SET_NO":"999","MEAN_MOTION_DDOT":"0.0000000000000","FILE":"3515618","TLE_LINE2":"2 49131  69.9978  12.3652 0003152 255.3620 104.7189 14.98332953 47470","MEAN_ELEMENT_THEORY":"SGP4","TIME_SYSTEM":"UTC","LAUNCH_DATE":"2021-09-14","COUNTRY_CODE":"US","ECCENTRICITY":"0.00031520","RA_OF_ASC_NODE":"12.3652","ARG_OF_PERICENTER":"255.3620","OBJECT_TYPE":"PAYLOAD","EPHEMERIS_TYPE":"0","BSTAR":"0.00007628500000","APOAPSIS":"574.239","REF_FRAME":"TEME","SITE":"AFWTR","INCLINATION":"69.9978","CENTER_NAME":"EARTH","EPOCH":"2022-07-16T21:34:37.392096","SEMIMAJOR_AXIS":"6950.184","GP_ID":"208273223","MEAN_MOTION_DOT":"0.00000817","MEAN_ANOMALY":"104.7189","REV_AT_EPOCH":"4747","RCS_SIZE":"LARGE","OBJECT_NAME":"STARLINK-3096","PERIAPSIS":"569.858","OBJECT_ID":"2021-082B","PERIOD":"96.107","CLASSIFICATION_TYPE":"U","MEAN_MOTION":"14.98332953"},{"REV_AT_EPOCH":"4648","RCS_SIZE":"LARGE","MEAN_ANOMALY":"100.4836","MEAN_MOTION_DOT":"0.00002297","GP_ID":"208271981","SEMIMAJOR_AXIS":"6950.175","EPOCH":"2022-07-16T20:45:40.802976","MEAN_MOTION":"14.98335772","CLASSIFICATION_TYPE":"U","OBJECT_ID":"2021-082C","PERIOD":"96.107","PERIAPSIS":"570.105","OBJECT_NAME":"STARLINK-3090","APOAPSIS":"573.975","EPHEMERIS_TYPE":"0","BSTAR":"0.00020025000000","OBJECT_TYPE":"PAYLOAD","INCLINATION":"69.9991","CENTER_NAME":"EARTH","SITE":"AFWTR","REF_FRAME":"TEME","LAUNCH_DATE":"2021-09-14","TIME_SYSTEM":"UTC","MEAN_ELEMENT_THEORY":"SGP4","TLE_LINE2":"2 49132  69.9991  52.4435 0002784 259.6010 100.4836 14.98335772 46484","ARG_OF_PERICENTER":"259.6010","RA_OF_ASC_NODE":"52.4435","ECCENTRICITY":"0.00027840","COUNTRY_CODE":"US","NORAD_CAT_ID":"49132","TLE_LINE1":"1 49132U 21082C   22197.86505559  .00002297  00000-0  20025-3 0  9998","DECAY_DATE":null,"FILE":"3515618","MEAN_MOTION_DDOT":"0.0000000000000","ELEMENT_SET_NO":"999"},{"ECCENTRICITY":"0.00033150","RA_OF_ASC_NODE":"52.4672","ARG_OF_PERICENTER":"256.2195","COUNTRY_CODE":"US","TIME_SYSTEM":"UTC","LAUNCH_DATE":"2021-09-14","TLE_LINE2":"2 49133  69.9995  52.4672 0003315 256.2195 103.8595 14.98334929 46482","MEAN_ELEMENT_THEORY":"SGP4","MEAN_MOTION_DDOT":"0.0000000000000","FILE":"3515618","ELEMENT_SET_NO":"999","NORAD_CAT_ID":"49133","DECAY_DATE":null,"TLE_LINE1":"1 49133U 21082D   22197.86028838  .00001064  00000-0  96973-4 0  9996","CLASSIFICATION_TYPE":"U","MEAN_MOTION":"14.98334929","PERIOD":"96.107","OBJECT_ID":"2021-082D","PERIAPSIS":"569.739","OBJECT_NAME":"STARLINK-3077","MEAN_ANOMALY":"103.8595","MEAN_MOTION_DOT":"0.00001064","RCS_SIZE":"LARGE","REV_AT_EPOCH":"4648","GP_ID":"208271732","EPOCH":"2022-07-16T20:38:48.916032","SEMIMAJOR_AXIS":"6950.178","INCLINATION":"69.9995","CENTER_NAME":"EARTH","SITE":"AFWTR","REF_FRAME":"TEME","BSTAR":"0.00009697300000","EPHEMERIS_TYPE":"0","APOAPSIS":"574.347","OBJECT_TYPE":"PAYLOAD"},{"COUNTRY_CODE":"US","ARG_OF_PERICENTER":"265.3561","ECCENTRICITY":"0.00028430","RA_OF_ASC_NODE":"52.4775","MEAN_ELEMENT_THEORY":"SGP4","TLE_LINE2":"2 49134  70.0005  52.4775 0002843 265.3561  94.7273 14.98329671 47687","LAUNCH_DATE":"2021-09-14","TIME_SYSTEM":"UTC","ELEMENT_SET_NO":"999","FILE":"3515618","MEAN_MOTION_DDOT":"0.0000000000000","TLE_LINE1":"1 49134U 21082E   22197.85552269  .00000532  00000-0  52405-4 0  9997","DECAY_DATE":null,"NORAD_CAT_ID":"49134","PERIAPSIS":"570.083","OBJECT_NAME":"STARLINK-3078","MEAN_MOTION":"14.98329671","CLASSIFICATION_TYPE":"U","OBJECT_ID":"2021-082E","PERIOD":"96.107","GP_ID":"208272983","SEMIMAJOR_AXIS":"6950.194","EPOCH":"2022-07-16T20:31:57.160416","REV_AT_EPOCH":"4768","RCS_SIZE":"LARGE","MEAN_ANOMALY":"94.7273","MEAN_MOTION_DOT":"0.00000532","REF_FRAME":"TEME","INCLINATION":"70.0005","CENTER_NAME":"EARTH","SITE":"AFWTR","OBJECT_TYPE":"PAYLOAD","APOAPSIS":"574.035","BSTAR":"0.00005240500000","EPHEMERIS_TYPE":"0"},{"RA_OF_ASC_NODE":"11.8986","ECCENTRICITY":"0.00032990","ARG_OF_PERICENTER":"264.9874","COUNTRY_CODE":"US","TIME_SYSTEM":"UTC","LAUNCH_DATE":"2021-09-14","TLE_LINE2":"2 49135  69.9983  11.8986 0003299 264.9874  95.0908 14.96719977 47499","MEAN_ELEMENT_THEORY":"SGP4","MEAN_MOTION_DDOT":"0.0000000000000","FILE":"3515618","ELEMENT_SET_NO":"999","NORAD_CAT_ID":"49135","DECAY_DATE":null,"TLE_LINE1":"1 49135U 21082F   22197.87478826  .00000100  00000-0  16776-4 0  9998","CLASSIFICATION_TYPE":"U","MEAN_MOTION":"14.96719977","PERIOD":"96.210","OBJECT_ID":"2021-082F","PERIAPSIS":"574.747","OBJECT_NAME":"STARLINK-3073","MEAN_ANOMALY":"95.0908","MEAN_MOTION_DOT":"0.00000100","REV_AT_EPOCH":"4749","RCS_SIZE":"LARGE","GP_ID":"208272724","EPOCH":"2022-07-16T20:59:41.705664","SEMIMAJOR_AXIS":"6955.176","CENTER_NAME":"EARTH","INCLINATION":"69.9983","SITE":"AFWTR","REF_FRAME":"TEME","EPHEMERIS_TYPE":"0","BSTAR":"0.00001677600000","APOAPSIS":"579.336","OBJECT_TYPE":"PAYLOAD"},{"APOAPSIS":"579.282","BSTAR":"0.00002224200000","EPHEMERIS_TYPE":"0","OBJECT_TYPE":"PAYLOAD","CENTER_NAME":"EARTH","INCLINATION":"69.9998","SITE":"AFWTR","REF_FRAME":"TEME","REV_AT_EPOCH":"4699","RCS_SIZE":"LARGE","MEAN_MOTION_DOT":"0.00000163","MEAN_ANOMALY":"106.9758","GP_ID":"208271482","SEMIMAJOR_AXIS":"6955.190","EPOCH":"2022-07-16T20:16:14.483712","MEAN_MOTION":"14.96715399","CLASSIFICATION_TYPE":"U","OBJECT_ID":"2021-082G","PERIOD":"96.211","PERIAPSIS":"574.828","OBJECT_NAME":"STARLINK-3084","NORAD_CAT_ID":"49136","TLE_LINE1":"1 49136U 21082G   22197.84461208  .00000163  00000-0  22242-4 0  9996","DECAY_DATE":null,"FILE":"3515618","MEAN_MOTION_DDOT":"0.0000000000000","ELEMENT_SET_NO":"999","LAUNCH_DATE":"2021-09-14","TIME_SYSTEM":"UTC","MEAN_ELEMENT_THEORY":"SGP4","TLE_LINE2":"2 49136  69.9998  32.2294 0003202 253.1050 106.9758 14.96715399 46998","ARG_OF_PERICENTER":"253.1050","RA_OF_ASC_NODE":"32.2294","ECCENTRICITY":"0.00032020","COUNTRY_CODE":"US"},{"NORAD_CAT_ID":"49137","DECAY_DATE":null,"TLE_LINE1":"1 49137U 21082H   22197.84125620  .00000088  00000-0  15650-4 0  9993","MEAN_MOTION_DDOT":"0.0000000000000","FILE":"3515618","ELEMENT_SET_NO":"999","TIME_SYSTEM":"UTC","LAUNCH_DATE":"2021-09-14","TLE_LINE2":"2 49137  70.0004  32.2529 0003035 258.2489 101.8329 14.96719331 46984","MEAN_ELEMENT_THEORY":"SGP4","RA_OF_ASC_NODE":"32.2529","ECCENTRICITY":"0.00030350","ARG_OF_PERICENTER":"258.2489","COUNTRY_CODE":"US","EPHEMERIS_TYPE":"0","BSTAR":"0.00001565000000","APOAPSIS":"579.154","OBJECT_TYPE":"PAYLOAD","INCLINATION":"70.0004","CENTER_NAME":"EARTH","SITE":"AFWTR","REF_FRAME":"TEME","MEAN_MOTION_DOT":"0.00000088","MEAN_ANOMALY":"101.8329","RCS_SIZE":"LARGE","REV_AT_EPOCH":"4698","GP_ID":"208272232","EPOCH":"2022-07-16T20:11:24.535680","SEMIMAJOR_AXIS":"6955.178","CLASSIFICATION_TYPE":"U","MEAN_MOTION":"14.96719331","OBJECT_ID":"2021-082H","PERIOD":"96.210","PERIAPSIS":"574.932","OBJECT_NAME":"STARLINK-3055"}];
